<?xml version="1.0" encoding="UTF-8"?>
<ndm xmlns:xsi="http://www.w3.org/2001/XMLSchema-instance" xsi:noNamespaceSchemaLocation="https://sanaregistry.org/r/ndmxml_unqualified/ndmxml-2.0.0-master-2.0.xsd">
<omm id="CCSDS_OMM_VERS" version="2.0">
<header><CREATION_DATE/><ORIGINATOR/></header><body><segment><metadata><OBJECT_NAME>STARLINK-11681 [DTC]</OBJECT_NAME><OBJECT_ID>2025-089E</OBJECT_ID><CENTER_NAME>EARTH</CENTER_NAME><REF_FRAME>TEME</REF_FRAME><TIME_SYSTEM>UTC</TIME_SYSTEM><MEAN_ELEMENT_THEORY>SGP4</MEAN_ELEMENT_THEORY></metadata><data><meanElements><EPOCH>2025-05-08T06:00:02.000160</EPOCH><MEAN_MOTION>15.84805485</MEAN_MOTION><ECCENTRICITY>.0002529</ECCENTRICITY><INCLINATION>43.0056</INCLINATION><RA_OF_ASC_NODE>336.3785</RA_OF_ASC_NODE><ARG_OF_PERICENTER>258.0007</ARG_OF_PERICENTER><MEAN_ANOMALY>113.5138</MEAN_ANOMALY></meanElements><tleParameters><EPHEMERIS_TYPE>0</EPHEMERIS_TYPE><CLASSIFICATION_TYPE>U</CLASSIFICATION_TYPE><NORAD_CAT_ID>63755</NORAD_CAT_ID><ELEMENT_SET_NO>999</ELEMENT_SET_NO><REV_AT_EPOCH>206</REV_AT_EPOCH><BSTAR>-.37911E-3</BSTAR><MEAN_MOTION_DOT>-.9077E-3</MEAN_MOTION_DOT><MEAN_MOTION_DDOT>0</MEAN_MOTION_DDOT></tleParameters></data></segment></body></omm>
<omm id="CCSDS_OMM_VERS" version="2.0">
<header><CREATION_DATE/><ORIGINATOR/></header><body><segment><metadata><OBJECT_NAME>STARLINK-11688 [DTC]</OBJECT_NAME><OBJECT_ID>2025-089F</OBJECT_ID><CENTER_NAME>EARTH</CENTER_NAME><REF_FRAME>TEME</REF_FRAME><TIME_SYSTEM>UTC</TIME_SYSTEM><MEAN_ELEMENT_THEORY>SGP4</MEAN_ELEMENT_THEORY></metadata><data><meanElements><EPOCH>2025-05-08T06:00:02.000160</EPOCH><MEAN_MOTION>15.84802949</MEAN_MOTION><ECCENTRICITY>.0002094</ECCENTRICITY><INCLINATION>43.0050</INCLINATION><RA_OF_ASC_NODE>336.3715</RA_OF_ASC_NODE><ARG_OF_PERICENTER>272.7143</ARG_OF_PERICENTER><MEAN_ANOMALY>101.1690</MEAN_ANOMALY></meanElements><tleParameters><EPHEMERIS_TYPE>0</EPHEMERIS_TYPE><CLASSIFICATION_TYPE>U</CLASSIFICATION_TYPE><NORAD_CAT_ID>63756</NORAD_CAT_ID><ELEMENT_SET_NO>999</ELEMENT_SET_NO><REV_AT_EPOCH>195</REV_AT_EPOCH><BSTAR>-.36035E-3</BSTAR><MEAN_MOTION_DOT>-.86329E-3</MEAN_MOTION_DOT><MEAN_MOTION_DDOT>0</MEAN_MOTION_DDOT></tleParameters></data></segment></body></omm>
<omm id="CCSDS_OMM_VERS" version="2.0">
<header><CREATION_DATE/><ORIGINATOR/></header><body><segment><metadata><OBJECT_NAME>STARLINK-11676 [DTC]</OBJECT_NAME><OBJECT_ID>2025-089G</OBJECT_ID><CENTER_NAME>EARTH</CENTER_NAME><REF_FRAME>TEME</REF_FRAME><TIME_SYSTEM>UTC</TIME_SYSTEM><MEAN_ELEMENT_THEORY>SGP4</MEAN_ELEMENT_THEORY></metadata><data><meanElements><EPOCH>2025-05-07T22:00:01.999584</EPOCH><MEAN_MOTION>15.84730827</MEAN_MOTION><ECCENTRICITY>.0001685</ECCENTRICITY><INCLINATION>43.0053</INCLINATION><RA_OF_ASC_NODE>338.4181</RA_OF_ASC_NODE><ARG_OF_PERICENTER>252.1866</ARG_OF_PERICENTER><MEAN_ANOMALY>20.9454</MEAN_ANOMALY></meanElements><tleParameters><EPHEMERIS_TYPE>0</EPHEMERIS_TYPE><CLASSIFICATION_TYPE>U</CLASSIFICATION_TYPE><NORAD_CAT_ID>63757</NORAD_CAT_ID><ELEMENT_SET_NO>999</ELEMENT_SET_NO><REV_AT_EPOCH>191</REV_AT_EPOCH><BSTAR>.13288E-3</BSTAR><MEAN_MOTION_DOT>.31383E-3</MEAN_MOTION_DOT><MEAN_MOTION_DDOT>0</MEAN_MOTION_DDOT></tleParameters></data></segment></body></omm>
<omm id="CCSDS_OMM_VERS" version="2.0">
<header><CREATION_DATE/><ORIGINATOR/></header><body><segment><metadata><OBJECT_NAME>STARLINK-11705 [DTC]</OBJECT_NAME><OBJECT_ID>2025-089H</OBJECT_ID><CENTER_NAME>EARTH</CENTER_NAME><REF_FRAME>TEME</REF_FRAME><TIME_SYSTEM>UTC</TIME_SYSTEM><MEAN_ELEMENT_THEORY>SGP4</MEAN_ELEMENT_THEORY></metadata><data><meanElements><EPOCH>2025-05-07T22:00:01.999584</EPOCH><MEAN_MOTION>15.84727896</MEAN_MOTION><ECCENTRICITY>.0001636</ECCENTRICITY><INCLINATION>43.0053</INCLINATION><RA_OF_ASC_NODE>338.4127</RA_OF_ASC_NODE><ARG_OF_PERICENTER>255.9807</ARG_OF_PERICENTER><MEAN_ANOMALY>19.3248</MEAN_ANOMALY></meanElements><tleParameters><EPHEMERIS_TYPE>0</EPHEMERIS_TYPE><CLASSIFICATION_TYPE>U</CLASSIFICATION_TYPE><NORAD_CAT_ID>63758</NORAD_CAT_ID><ELEMENT_SET_NO>999</ELEMENT_SET_NO><REV_AT_EPOCH>197</REV_AT_EPOCH><BSTAR>.15436E-3</BSTAR><MEAN_MOTION_DOT>.36563E-3</MEAN_MOTION_DOT><MEAN_MOTION_DDOT>0</MEAN_MOTION_DDOT></tleParameters></data></segment></body></omm>
<omm id="CCSDS_OMM_VERS" version="2.0">
<header><CREATION_DATE/><ORIGINATOR/></header><body><segment><metadata><OBJECT_NAME>STARLINK-11703 [DTC]</OBJECT_NAME><OBJECT_ID>2025-089J</OBJECT_ID><CENTER_NAME>EARTH</CENTER_NAME><REF_FRAME>TEME</REF_FRAME><TIME_SYSTEM>UTC</TIME_SYSTEM><MEAN_ELEMENT_THEORY>SGP4</MEAN_ELEMENT_THEORY></metadata><data><meanElements><EPOCH>2025-05-07T22:00:01.999584</EPOCH><MEAN_MOTION>15.84746514</MEAN_MOTION><ECCENTRICITY>.0001906</ECCENTRICITY><INCLINATION>43.0054</INCLINATION><RA_OF_ASC_NODE>338.4046</RA_OF_ASC_NODE><ARG_OF_PERICENTER>255.8858</ARG_OF_PERICENTER><MEAN_ANOMALY>22.6001</MEAN_ANOMALY></meanElements><tleParameters><EPHEMERIS_TYPE>0</EPHEMERIS_TYPE><CLASSIFICATION_TYPE>U</CLASSIFICATION_TYPE><NORAD_CAT_ID>63759</NORAD_CAT_ID><ELEMENT_SET_NO>999</ELEMENT_SET_NO><REV_AT_EPOCH>202</REV_AT_EPOCH><BSTAR>.81579E-4</BSTAR><MEAN_MOTION_DOT>.19039E-3</MEAN_MOTION_DOT><MEAN_MOTION_DDOT>0</MEAN_MOTION_DDOT></tleParameters></data></segment></body></omm>
<omm id="CCSDS_OMM_VERS" version="2.0">
<header><CREATION_DATE/><ORIGINATOR/></header><body><segment><metadata><OBJECT_NAME>STARLINK-11701 [DTC]</OBJECT_NAME><OBJECT_ID>2025-089K</OBJECT_ID><CENTER_NAME>EARTH</CENTER_NAME><REF_FRAME>TEME</REF_FRAME><TIME_SYSTEM>UTC</TIME_SYSTEM><MEAN_ELEMENT_THEORY>SGP4</MEAN_ELEMENT_THEORY></metadata><data><meanElements><EPOCH>2025-05-08T06:00:02.000160</EPOCH><MEAN_MOTION>15.84807180</MEAN_MOTION><ECCENTRICITY>.0001763</ECCENTRICITY><INCLINATION>43.0049</INCLINATION><RA_OF_ASC_NODE>336.3434</RA_OF_ASC_NODE><ARG_OF_PERICENTER>259.6065</ARG_OF_PERICENTER><MEAN_ANOMALY>125.4369</MEAN_ANOMALY></meanElements><tleParameters><EPHEMERIS_TYPE>0</EPHEMERIS_TYPE><CLASSIFICATION_TYPE>U</CLASSIFICATION_TYPE><NORAD_CAT_ID>63760</NORAD_CAT_ID><ELEMENT_SET_NO>999</ELEMENT_SET_NO><REV_AT_EPOCH>206</REV_AT_EPOCH><BSTAR>-.38019E-3</BSTAR><MEAN_MOTION_DOT>-.91016E-3</MEAN_MOTION_DOT><MEAN_MOTION_DDOT>0</MEAN_MOTION_DDOT></tleParameters></data></segment></body></omm>
<omm id="CCSDS_OMM_VERS" version="2.0">
<header><CREATION_DATE/><ORIGINATOR/></header><body><segment><metadata><OBJECT_NAME>STARLINK-11660 [DTC]</OBJECT_NAME><OBJECT_ID>2025-089L</OBJECT_ID><CENTER_NAME>EARTH</CENTER_NAME><REF_FRAME>TEME</REF_FRAME><TIME_SYSTEM>UTC</TIME_SYSTEM><MEAN_ELEMENT_THEORY>SGP4</MEAN_ELEMENT_THEORY></metadata><data><meanElements><EPOCH>2025-05-08T06:00:02.000160</EPOCH><MEAN_MOTION>15.84801840</MEAN_MOTION><ECCENTRICITY>.0002204</ECCENTRICITY><INCLINATION>43.0050</INCLINATION><RA_OF_ASC_NODE>336.3365</RA_OF_ASC_NODE><ARG_OF_PERICENTER>268.7043</ARG_OF_PERICENTER><MEAN_ANOMALY>119.0812</MEAN_ANOMALY></meanElements><tleParameters><EPHEMERIS_TYPE>0</EPHEMERIS_TYPE><CLASSIFICATION_TYPE>U</CLASSIFICATION_TYPE><NORAD_CAT_ID>63761</NORAD_CAT_ID><ELEMENT_SET_NO>999</ELEMENT_SET_NO><REV_AT_EPOCH>201</REV_AT_EPOCH><BSTAR>-.35285E-3</BSTAR><MEAN_MOTION_DOT>-.84559E-3</MEAN_MOTION_DOT><MEAN_MOTION_DDOT>0</MEAN_MOTION_DDOT></tleParameters></data></segment></body></omm>
<omm id="CCSDS_OMM_VERS" version="2.0">
<header><CREATION_DATE/><ORIGINATOR/></header><body><segment><metadata><OBJECT_NAME>STARLINK-11699 [DTC]</OBJECT_NAME><OBJECT_ID>2025-089M</OBJECT_ID><CENTER_NAME>EARTH</CENTER_NAME><REF_FRAME>TEME</REF_FRAME><TIME_SYSTEM>UTC</TIME_SYSTEM><MEAN_ELEMENT_THEORY>SGP4</MEAN_ELEMENT_THEORY></metadata><data><meanElements><EPOCH>2025-05-08T06:00:02.000160</EPOCH><MEAN_MOTION>15.84815551</MEAN_MOTION><ECCENTRICITY>.0001908</ECCENTRICITY><INCLINATION>43.0050</INCLINATION><RA_OF_ASC_NODE>336.3305</RA_OF_ASC_NODE><ARG_OF_PERICENTER>263.4353</ARG_OF_PERICENTER><MEAN_ANOMALY>126.7269</MEAN_ANOMALY></meanElements><tleParameters><EPHEMERIS_TYPE>0</EPHEMERIS_TYPE><CLASSIFICATION_TYPE>U</CLASSIFICATION_TYPE><NORAD_CAT_ID>63762</NORAD_CAT_ID><ELEMENT_SET_NO>999</ELEMENT_SET_NO><REV_AT_EPOCH>206</REV_AT_EPOCH><BSTAR>-.4623E-3</BSTAR><MEAN_MOTION_DOT>-.110358E-2</MEAN_MOTION_DOT><MEAN_MOTION_DDOT>0</MEAN_MOTION_DDOT></tleParameters></data></segment></body></omm>

</ndm>